[Satellite]
VERSION=1.1
NAME=STARLINK-5043
NICKNAME=STARLINK-5043
TLE1=1 53894U 22119J   22297.16668981 -.00155420  00000+0 -11228-2 0  9995
TLE2=2 53894  53.2140 108.4934 0001097  71.9233 355.5482 15.73215598  5033
STATUS=0
